IRIDIUM 144             
1 43249U 18030A   24167.56814233  .00000202  00000+0  64929-4 0  9993
2 43249  86.3980 236.1372 0002515  99.5389 260.6091 14.34217123325279
IRIDIUM 149             
1 43250U 18030B   24167.57448514  .00000058  00000+0  13504-4 0  9993
2 43250  86.3981 236.1098 0002463  95.2585 264.8891 14.34217741325292
IRIDIUM 157             
1 43251U 18030C   24167.59351308 -.00000083  00000+0 -36668-4 0  9996
2 43251  86.3985 236.1384 0002160  85.9494 274.1948 14.34216746325273
IRIDIUM 140             
1 43252U 18030D   24167.61254078  .00000053  00000+0  11684-4 0  9992
2 43252  86.3981 236.1452 0002352 105.0705 255.0751 14.34217410325334
IRIDIUM 145             
1 43253U 18030E   24167.59985583  .00000015  00000+0 -18867-5 0  9992
2 43253  86.3983 236.1241 0002621  98.6500 261.4993 14.34217480325260
IRIDIUM 146             
1 43254U 18030F   24167.58082733  .00000088  00000+0  24513-4 0  9990
2 43254  86.3981 236.1471 0002476  96.4982 263.6496 14.34218027325273
IRIDIUM 148             
1 43255U 18030G   24167.47934624  .00000074  00000+0  19317-4 0  9995
2 43255  86.3983 236.2212 0002365  90.6231 269.5236 14.34217521325297
IRIDIUM 142             
1 43256U 18030H   24167.58717192  .00000392  00000+0  13282-3 0  9994
2 43256  86.3978 236.0919 0002628  97.1412 263.0082 14.34218466325274
